{
  "norad_id": 45608,
  "name": "COSMOS 2546",
  "history": [
    {
      "epoch": "2026-03-23T18:48:41.768064Z",
      "apogee_km": 38880.76016515793,
      "perigee_km": 1472.4071413045913,
      "latitude_deg": -2.1064397902294074e-05,
      "longitude_deg": -26.017840613415277,
      "height_km": 7714.305341724947,
      "semi_major_axis_km": 26554.720653231263,
      "eccentricity": 0.70436352,
      "inclination_deg": 63.1526,
      "raan_deg": 77.4882,
      "arg_perigee_deg": 265.8985,
      "mean_anomaly_deg": 18.1857,
      "mean_motion_rev_day": 2.00627359
    },
    {
      "epoch": "2026-03-30T18:17:05.973216Z",
      "apogee_km": 38889.8155676354,
      "perigee_km": 1463.6794608078935,
      "latitude_deg": 8.453236335448835e-05,
      "longitude_deg": -25.892133444295354,
      "height_km": 7694.663952797095,
      "semi_major_axis_km": 26554.88451422165,
      "eccentricity": 0.70469401,
      "inclination_deg": 63.1558,
      "raan_deg": 76.6086,
      "arg_perigee_deg": 265.9183,
      "mean_anomaly_deg": 18.1551,
      "mean_motion_rev_day": 2.00625502
    },
    {
      "epoch": "2026-04-03T17:59:03.249024Z",
      "apogee_km": 38895.49956817378,
      "perigee_km": 1458.133998006785,
      "latitude_deg": 9.743619815526754e-05,
      "longitude_deg": -25.827017246605003,
      "height_km": 7695.276501371398,
      "semi_major_axis_km": 26554.95378309028,
      "eccentricity": 0.70490361,
      "inclination_deg": 63.157,
      "raan_deg": 76.1034,
      "arg_perigee_deg": 265.9348,
      "mean_anomaly_deg": 18.1321,
      "mean_motion_rev_day": 2.00624717
    },
    {
      "epoch": "2026-04-10T17:27:38.951424Z",
      "apogee_km": 38908.51731826412,
      "perigee_km": 1447.3479771091652,
      "latitude_deg": 4.686669443305806e-05,
      "longitude_deg": -25.686138122175105,
      "height_km": 7679.572839127886,
      "semi_major_axis_km": 26556.069647686643,
      "eccentricity": 0.70532217,
      "inclination_deg": 63.1692,
      "raan_deg": 75.2496,
      "arg_perigee_deg": 265.9595,
      "mean_anomaly_deg": 18.0869,
      "mean_motion_rev_day": 2.00612072
    },
    {
      "epoch": "2026-04-13T17:14:06.941760Z",
      "apogee_km": 38911.67371883288,
      "perigee_km": 1442.3650533546597,
      "latitude_deg": 9.525007562250672e-05,
      "longitude_deg": -25.661139587472857,
      "height_km": 7669.965858227747,
      "semi_major_axis_km": 26555.156386093768,
      "eccentricity": 0.70549968,
      "inclination_deg": 63.1545,
      "raan_deg": 74.8526,
      "arg_perigee_deg": 265.969,
      "mean_anomaly_deg": 18.0794,
      "mean_motion_rev_day": 2.00622421
    },
    {
      "epoch": "2026-04-16T17:00:39.080160Z",
      "apogee_km": 38915.34065706734,
      "perigee_km": 1438.8428334243317,
      "latitude_deg": 0.00010111354915628901,
      "longitude_deg": -25.639844652416446,
      "height_km": 7668.8704029743185,
      "semi_major_axis_km": 26555.228745245837,
      "eccentricity": 0.70563312,
      "inclination_deg": 63.154,
      "raan_deg": 74.4664,
      "arg_perigee_deg": 265.9928,
      "mean_anomaly_deg": 18.0586,
      "mean_motion_rev_day": 2.00621601
    },
    {
      "epoch": "2026-04-23T04:31:28.960896Z",
      "apogee_km": 38923.88417515948,
      "perigee_km": 1430.5411029910256,
      "latitude_deg": -6.844654309457347e-06,
      "longitude_deg": 154.49162685969782,
      "height_km": 7659.683244755836,
      "semi_major_axis_km": 26555.34963907525,
      "eccentricity": 0.70594708,
      "inclination_deg": 63.1549,
      "raan_deg": 73.659,
      "arg_perigee_deg": 266.0285,
      "mean_anomaly_deg": 17.9866,
      "mean_motion_rev_day": 2.00620231
    },
    {
      "epoch": "2026-04-24T16:24:46.812960Z",
      "apogee_km": 38926.20038299688,
      "perigee_km": 1428.379675997382,
      "latitude_deg": 7.094532680873844e-05,
      "longitude_deg": -25.498399207947003,
      "height_km": 7653.556244273188,
      "semi_major_axis_km": 26555.427029497132,
      "eccentricity": 0.70602933,
      "inclination_deg": 63.1549,
      "raan_deg": 73.4697,
      "arg_perigee_deg": 266.0352,
      "mean_anomaly_deg": 17.9786,
      "mean_motion_rev_day": 2.00619354
    },
    {
      "epoch": "2026-04-27T04:13:38.329248Z",
      "apogee_km": 38929.01322849383,
      "perigee_km": 1425.5809496757165,
      "latitude_deg": 0.00013644265579402755,
      "longitude_deg": 154.49694833515719,
      "height_km": 7649.612573639964,
      "semi_major_axis_km": 26555.434089084774,
      "eccentricity": 0.7061348,
      "inclination_deg": 63.1548,
      "raan_deg": 73.1475,
      "arg_perigee_deg": 266.0433,
      "mean_anomaly_deg": 17.9715,
      "mean_motion_rev_day": 2.00619274
    },
    {
      "epoch": "2026-04-28T16:06:56.144160Z",
      "apogee_km": 38931.53908770669,
      "perigee_km": 1423.154277933737,
      "latitude_deg": 5.735954473184807e-05,
      "longitude_deg": -25.48833009542306,
      "height_km": 7648.317315784968,
      "semi_major_axis_km": 26555.483682820213,
      "eccentricity": 0.70622673,
      "inclination_deg": 63.155,
      "raan_deg": 72.964,
      "arg_perigee_deg": 266.0532,
      "mean_anomaly_deg": 17.9599,
      "mean_motion_rev_day": 2.00618712
    },
    {
      "epoch": "2026-04-30T15:58:00.272352Z",
      "apogee_km": 38934.490577832345,
      "perigee_km": 1420.2657950363337,
      "latitude_deg": 8.796499118627998e-05,
      "longitude_deg": -25.467600803542354,
      "height_km": 7649.199853344649,
      "semi_major_axis_km": 26555.515186434342,
      "eccentricity": 0.70633585,
      "inclination_deg": 63.1552,
      "raan_deg": 72.7129,
      "arg_perigee_deg": 266.0619,
      "mean_anomaly_deg": 17.9428,
      "mean_motion_rev_day": 2.00618355
    },
    {
      "epoch": "2026-05-04T15:40:08.037120Z",
      "apogee_km": 38939.37129236065,
      "perigee_km": 1415.477915027961,
      "latitude_deg": -0.00013168454742482758,
      "longitude_deg": -25.406455920728522,
      "height_km": 7644.76342429843,
      "semi_major_axis_km": 26555.561603694307,
      "eccentricity": 0.70651666,
      "inclination_deg": 63.1549,
      "raan_deg": 72.2088,
      "arg_perigee_deg": 266.0839,
      "mean_anomaly_deg": 17.9063,
      "mean_motion_rev_day": 2.00617829
    },
    {
      "epoch": "2026-05-06T03:33:27.199008Z",
      "apogee_km": 38941.52446007833,
      "perigee_km": 1413.3882844779,
      "latitude_deg": 5.677060412458372e-05,
      "longitude_deg": 154.60708308042527,
      "height_km": 7639.914448229078,
      "semi_major_axis_km": 26555.59337227812,
      "eccentricity": 0.7065957,
      "inclination_deg": 63.1552,
      "raan_deg": 72.0172,
      "arg_perigee_deg": 266.0882,
      "mean_anomaly_deg": 17.8969,
      "mean_motion_rev_day": 2.00617469
    }
  ]
}